{"type":"FeatureCollection","features":[{"type":"Feature","geometry":{"type":"Polygon","coordinates":[[[18.672552,44.538657],[18.67196,44.53782],[18.672978,44.537851],[18.673526,44.537701],[18.673938,44.53757],[18.674324,44.537491],[18.675025,44.537366],[18.675651,44.537163],[18.676193,44.53699],[18.676412,44.536888],[18.676894,44.536751],[18.677366,44.53668],[18.677744,44.536529],[18.678514,44.536081],[18.67894,44.535819],[18.679299,44.535794],[18.67961,44.53591],[18.679896,44.535775],[18.681776,44.534914],[18.681969,44.535092],[18.680435,44.535791],[18.679835,44.536069],[18.68009,44.536356],[18.680246,44.536541],[18.680307,44.536582],[18.682033,44.536658],[18.683668,44.536714],[18.683941,44.536962],[18.683697,44.537149],[18.683165,44.537436],[18.68288,44.537562],[18.682231,44.537564],[18.681422,44.537554],[18.681423,44.537784],[18.680668,44.538009],[18.679775,44.538306],[18.679958,44.538486],[18.678303,44.53933],[18.676921,44.540023],[18.676082,44.540454],[18.675778,44.540592],[18.675406,44.540691],[18.675073,44.540737],[18.67473,44.540737],[18.6737,44.540561],[18.673496,44.541318],[18.673147,44.541375],[18.673067,44.541219],[18.672809,44.540547],[18.672443,44.540366],[18.672676,44.540187],[18.672347,44.539883],[18.672492,44.539434],[18.672702,44.538971],[18.672714,44.538843],[18.672552,44.538657]]]},"properties":{"fill-opacity":0.15,"fill":"rgba(255, 0, 0, 1)","":0,"stroke":"rgba(239, 0, 4, 1)","stroke-opacity":0.5,"stroke-width":0.5},"bbox":[18.67196,44.534914,18.683941,44.541375],"id":"Zona 0"},{"type":"Feature","geometry":{"type":"Polygon","coordinates":[[[18.679309,44.5343],[18.679757,44.534119],[18.680448,44.5339],[18.680729,44.534096],[18.681042,44.533846],[18.681779,44.533124],[18.681981,44.532925],[18.682231,44.532736],[18.682488,44.532527],[18.682812,44.532338],[18.68295,44.533175],[18.683941,44.533277],[18.685231,44.533212],[18.687307,44.532044],[18.689041,44.53196],[18.688933,44.529868],[18.689661,44.52958],[18.690189,44.529393],[18.690877,44.529169],[18.691507,44.528996],[18.692145,44.528892],[18.692729,44.528777],[18.693415,44.528679],[18.693876,44.528657],[18.694563,44.528666],[18.695241,44.528707],[18.695411,44.528777],[18.695565,44.528886],[18.695864,44.529256],[18.6962,44.529731],[18.696395,44.529974],[18.696533,44.530192],[18.696276,44.530262],[18.695921,44.530337],[18.695492,44.530421],[18.695629,44.530984],[18.694915,44.531149],[18.693981,44.531363],[18.694012,44.53168],[18.693512,44.531725],[18.693565,44.532237],[18.694242,44.532211],[18.694296,44.532894],[18.694293,44.533207],[18.694314,44.533453],[18.694321,44.533578],[18.694348,44.533621],[18.694381,44.533653],[18.694655,44.53385],[18.695262,44.53384],[18.695302,44.534109],[18.695428,44.534359],[18.695803,44.53476],[18.697258,44.534723],[18.697294,44.53559],[18.697294,44.536575],[18.697113,44.537542],[18.697127,44.537824],[18.69664,44.537815],[18.69664,44.537815],[18.696624,44.538189],[18.696473,44.538189],[18.696237,44.538184],[18.695848,44.538194],[18.695233,44.538198],[18.695212,44.538506],[18.695435,44.538517],[18.69545,44.53905],[18.695434,44.539201],[18.694142,44.53914],[18.693885,44.539493],[18.693605,44.539658],[18.692945,44.539937],[18.692288,44.540202],[18.691986,44.539782],[18.691992,44.539495],[18.691018,44.539218],[18.690883,44.538893],[18.690782,44.538528],[18.690437,44.537614],[18.691259,44.536968],[18.692114,44.536321],[18.692049,44.535732],[18.691942,44.534607],[18.690651,44.534635],[18.688419,44.534685],[18.688338,44.533605],[18.688329,44.53353],[18.687798,44.533558],[18.687468,44.533501],[18.686837,44.53358],[18.685856,44.533638],[18.685686,44.533844],[18.684888,44.534205],[18.685204,44.534825],[18.684908,44.534955],[18.684433,44.535209],[18.684869,44.535577],[18.685301,44.535935],[18.685719,44.535781],[18.685935,44.535992],[18.686757,44.53555],[18.687754,44.536463],[18.68637,44.537436],[18.685273,44.538151],[18.684204,44.53726],[18.683853,44.536775],[18.682096,44.535136],[18.68125,44.534542],[18.680687,44.53482],[18.681065,44.535233],[18.680706,44.535414],[18.679805,44.535832],[18.679295,44.535387],[18.678933,44.535075],[18.679525,44.534822],[18.679671,44.534704],[18.679309,44.5343]]]},"properties":{"fill":"rgba(33, 123, 226, 1)","fill-opacity":0.15,"stroke":"rgba(60, 159, 230, 1)","stroke-width":0.5},"bbox":[18.678933,44.528657,18.697294,44.540202],"id":"zona 1"},{"type":"Feature","geometry":{"type":"Polygon","coordinates":[[[18.665167,44.542321],[18.665128,44.540257],[18.665793,44.540085],[18.665797,44.540886],[18.665468,44.540886],[18.66551,44.541987],[18.668132,44.541958],[18.668115,44.541633],[18.669672,44.541588],[18.669667,44.540942],[18.67001,44.540938],[18.669993,44.541736],[18.668452,44.542274],[18.665167,44.542321]]]},"properties":{"fill":"rgba(86, 160, 230, 1)","fill-opacity":0.15,"stroke":"rgba(80, 194, 235, 1)","stroke-width":0.5},"bbox":[18.665128,44.540085,18.67001,44.542321],"id":"zona 1"},{"type":"Feature","geometry":{"type":"Polygon","coordinates":[[[18.668103,44.541195],[18.66811,44.541002],[18.665786,44.541012],[18.6658,44.539859],[18.667533,44.538822],[18.668738,44.538324],[18.670328,44.537704],[18.671176,44.53775],[18.671852,44.537879],[18.672303,44.53841],[18.668862,44.53986],[18.668829,44.541191],[18.668508,44.541191],[18.668103,44.541195]]]},"properties":{"fill-opacity":0.15,"stroke":"rgba(18, 222, 76, 1)","stroke-width":0.5,"fill":"rgba(21, 235, 35, 1)"},"bbox":[18.665786,44.537704,18.672303,44.541195],"id":"Zona 2"},{"type":"Feature","geometry":{"type":"Polygon","coordinates":[[[18.684414,44.535226],[18.685209,44.534821],[18.685209,44.534815],[18.684876,44.534191],[18.685663,44.53389],[18.685858,44.533636],[18.68598,44.534295],[18.687043,44.534521],[18.687473,44.53459],[18.687391,44.533497],[18.687724,44.533566],[18.688308,44.533531],[18.688389,44.534659],[18.687586,44.535024],[18.685947,44.535972],[18.685744,44.535758],[18.68529,44.535932],[18.684414,44.535226]]]},"properties":{"fill":"rgba(20, 219, 86, 1)","fill-opacity":0.15,"stroke":"rgba(20, 244, 94, 1)","stroke-width":0.5},"bbox":[18.684414,44.533497,18.688389,44.535972]},{"type":"Feature","geometry":{"type":"Polygon","coordinates":[[[18.675194,44.540787],[18.675602,44.540742],[18.676088,44.540613],[18.676668,44.540308],[18.677686,44.541135],[18.67742,44.541258],[18.676335,44.541536],[18.675308,44.54121],[18.675194,44.540787]]]},"properties":{"fill":"rgba(31, 224, 80, 1)","fill-opacity":0.15,"stroke":"rgba(13, 224, 56, 1)","stroke-width":0.5},"bbox":[18.675194,44.540308,18.677686,44.541536]},{"type":"Feature","geometry":{"type":"Polygon","coordinates":[[[18.683032,44.538585],[18.682697,44.53843],[18.682407,44.538299],[18.681972,44.538091],[18.680045,44.538549],[18.679775,44.538306],[18.680691,44.538009],[18.681417,44.537796],[18.68142,44.537569],[18.681875,44.537569],[18.682442,44.537574],[18.682702,44.537571],[18.682767,44.537637],[18.68362,44.538217],[18.683032,44.538585]]]},"properties":{"fill":"rgba(10, 240, 13, 1)","fill-opacity":0.15,"stroke":"rgba(30, 231, 57, 1)","stroke-width":0.5},"bbox":[18.679775,44.537569,18.68362,44.538585]},{"type":"Feature","geometry":{"type":"Polygon","coordinates":[[[18.68654,44.540718],[18.68661,44.540593],[18.686906,44.540631],[18.687302,44.540633],[18.687323,44.540777],[18.686923,44.540771],[18.68654,44.540718]]]},"properties":{"fill":"rgba(19, 214, 56, 1)","fill-opacity":0.15,"stroke":"rgba(16, 228, 76, 1)","stroke-width":0.5},"bbox":[18.68654,44.540593,18.687323,44.540777]},{"type":"Feature","geometry":{"type":"Polygon","coordinates":[[[18.695737,44.534245],[18.695615,44.532257],[18.69538,44.531113],[18.695651,44.530971],[18.695514,44.530414],[18.696547,44.530171],[18.697298,44.530054],[18.697721,44.531786],[18.699763,44.531585],[18.700678,44.531686],[18.701499,44.531811],[18.702955,44.531819],[18.703002,44.532832],[18.701805,44.532815],[18.701821,44.533479],[18.701063,44.533511],[18.700283,44.53369],[18.699563,44.533894],[18.698378,44.534153],[18.697416,44.53422],[18.695737,44.534245]]]},"properties":{"fill":"rgba(2, 207, 29, 1)","fill-opacity":0.15,"stroke":"rgba(18, 239, 88, 1)","stroke-width":0.4},"bbox":[18.69538,44.530054,18.703002,44.534245],"id":"Zona 2"},{"type":"Feature","properties":{"fill":"rgba(34, 141, 228, 1)","fill-opacity":0.15,"stroke":"rgba(38, 137, 237, 1)","stroke-width":0.5},"geometry":{"type":"Polygon","coordinates":[[[18.699123,44.535922],[18.699141,44.534708],[18.699168,44.534708],[18.699469,44.534699],[18.699483,44.535922],[18.699123,44.535922]]]},"bbox":[18.699123,44.534699,18.699483,44.535922]},{"type":"Feature","properties":{"fill":"rgba(70, 149, 251, 1)","fill-opacity":0.15,"stroke":"rgba(56, 135, 239, 1)","stroke-width":0.5},"geometry":{"type":"Polygon","coordinates":[[[18.652852,44.533043],[18.653098,44.532761],[18.653525,44.532325],[18.654415,44.53272],[18.653779,44.533428],[18.652852,44.533043]]]},"bbox":[18.652852,44.532325,18.654415,44.533428]},{"type":"Feature","properties":{"fill":"rgba(49, 133, 244, 1)","fill-opacity":0.15,"stroke":"rgba(46, 125, 230, 1)","stroke-width":0.5},"geometry":{"type":"Polygon","coordinates":[[[18.659276,44.535333],[18.659079,44.53549],[18.658409,44.535173],[18.658328,44.535141],[18.658348,44.535106],[18.658388,44.535044],[18.657888,44.534834],[18.658109,44.534568],[18.65871,44.534957],[18.659276,44.535333]]]},"bbox":[18.657888,44.534568,18.659276,44.53549]}]}