{
    "type": "FeatureCollection",
    "features": [
        {
            "type": "Feature",
            "geometry": {
                "type": "Polygon",
                "coordinates": [
                    [
                        [
                            18.672552,
                            44.538657
                        ],
                        [
                            18.671921,
                            44.537835
                        ],
                        [
                            18.672764,
                            44.53785
                        ],
                        [
                            18.673087,
                            44.53783
                        ],
                        [
                            18.6734,
                            44.537751
                        ],
                        [
                            18.674152,
                            44.537513
                        ],
                        [
                            18.674931,
                            44.537277
                        ],
                        [
                            18.675701,
                            44.536991
                        ],
                        [
                            18.676098,
                            44.536742
                        ],
                        [
                            18.676699,
                            44.536283
                        ],
                        [
                            18.677192,
                            44.53674
                        ],
                        [
                            18.678355,
                            44.536156
                        ],
                        [
                            18.67886,
                            44.535913
                        ],
                        [
                            18.67904,
                            44.535836
                        ],
                        [
                            18.67925,
                            44.535783
                        ],
                        [
                            18.679464,
                            44.535828
                        ],
                        [
                            18.679601,
                            44.535918
                        ],
                        [
                            18.681839,
                            44.534884
                        ],
                        [
                            18.682052,
                            44.535086
                        ],
                        [
                            18.680609,
                            44.535713
                        ],
                        [
                            18.679802,
                            44.536071
                        ],
                        [
                            18.680206,
                            44.536557
                        ],
                        [
                            18.68015,
                            44.536799
                        ],
                        [
                            18.68204,
                            44.536831
                        ],
                        [
                            18.683227,
                            44.536839
                        ],
                        [
                            18.683785,
                            44.536836
                        ],
                        [
                            18.683894,
                            44.536881
                        ],
                        [
                            18.683933,
                            44.537017
                        ],
                        [
                            18.683813,
                            44.537137
                        ],
                        [
                            18.68355,
                            44.537267
                        ],
                        [
                            18.682963,
                            44.537567
                        ],
                        [
                            18.681492,
                            44.53749
                        ],
                        [
                            18.681481,
                            44.537858
                        ],
                        [
                            18.681048,
                            44.537895
                        ],
                        [
                            18.680425,
                            44.538059
                        ],
                        [
                            18.679796,
                            44.53828
                        ],
                        [
                            18.680129,
                            44.538583
                        ],
                        [
                            18.678404,
                            44.539445
                        ],
                        [
                            18.677041,
                            44.540128
                        ],
                        [
                            18.676184,
                            44.540571
                        ],
                        [
                            18.675563,
                            44.540789
                        ],
                        [
                            18.675155,
                            44.540861
                        ],
                        [
                            18.67473,
                            44.540869
                        ],
                        [
                            18.673691,
                            44.540685
                        ],
                        [
                            18.673496,
                            44.541318
                        ],
                        [
                            18.673067,
                            44.541219
                        ],
                        [
                            18.672856,
                            44.54063
                        ],
                        [
                            18.672698,
                            44.540445
                        ],
                        [
                            18.672737,
                            44.540179
                        ],
                        [
                            18.672359,
                            44.539865
                        ],
                        [
                            18.672702,
                            44.538971
                        ],
                        [
                            18.672715,
                            44.53886
                        ],
                        [
                            18.672552,
                            44.538657
                        ]
                    ]
                ]
            },
            "properties": {
                "fill": "rgba(248, 11, 11, 1)",
                "fill-opacity": 0.1,
                "stroke": "rgba(253, 9, 9, 1)",
                "stroke-opacity": 0.5,
                "stroke-width": 1
            },
            "bbox": [
                18.671921,
                44.534884,
                18.683933,
                44.541318
            ]
        }
    ]
}